[{"OBJECT_NAME":"CTC-0","OBJECT_ID":"2024-247AA","EPOCH":"2026-03-09T02:21:16.090560","MEAN_MOTION":15.35770966,"ECCENTRICITY":0.00061541,"INCLINATION":44.9724,"RA_OF_ASC_NODE":105.2667,"ARG_OF_PERICENTER":12.6672,"MEAN_ANOMALY":347.4368,"EPHEMERIS_TYPE":0,"CLASSIFICATION_TYPE":"U","NORAD_CAT_ID":62401,"ELEMENT_SET_NO":999,"REV_AT_EPOCH":6781,"BSTAR":0.0007111017,"MEAN_MOTION_DOT":0.00025023,"MEAN_MOTION_DDOT":0},{"OBJECT_NAME":"OBJECT N","OBJECT_ID":"2025-155N","EPOCH":"2026-03-09T22:27:42.648192","MEAN_MOTION":15.35502024,"ECCENTRICITY":0.00088608,"INCLINATION":97.4405,"RA_OF_ASC_NODE":38.3729,"ARG_OF_PERICENTER":136.1354,"MEAN_ANOMALY":224.0595,"EPHEMERIS_TYPE":0,"CLASSIFICATION_TYPE":"U","NORAD_CAT_ID":64888,"ELEMENT_SET_NO":999,"REV_AT_EPOCH":6567,"BSTAR":0.00095623277,"MEAN_MOTION_DOT":0.00033051,"MEAN_MOTION_DDOT":0}]
